OBJECT_NAME,OBJECT_ID,EPOCH,MEAN_MOTION,ECCENTRICITY,INCLINATION,RA_OF_ASC_NODE,ARG_OF_PERICENTER,MEAN_ANOMALY,EPHEMERIS_TYPE,CLASSIFICATION_TYPE,NORAD_CAT_ID,ELEMENT_SET_NO,REV_AT_EPOCH,BSTAR,MEAN_MOTION_DOT,MEAN_MOTION_DDOT
ONEWEB-0401,2021-132N,2026-07-20T06:54:59.132160,13.18686561,.0001785,87.9204,328.8614,105.7755,254.3575,0,U,50481,999,22597,-.48434232E-4,-.6E-7,0
ONEWEB-0402,2021-132P,2026-07-19T20:55:14.591424,13.18684809,.00016794,87.9204,328.9330,112.6675,247.4635,0,U,50482,999,22594,-.27490261E-3,-.95E-6,0
ONEWEB-0403,2021-132Q,2026-07-20T01:10:12.076896,13.18686870,.00017946,87.9202,328.9224,95.3994,264.7343,0,U,50483,999,22592,-.4816405E-4,-.6E-7,0
ONEWEB-0404,2021-132R,2026-07-19T23:40:35.253696,13.11418349,.00017421,87.8892,14.5362,81.2580,278.8745,0,U,50484,999,21999,-.65853697E-3,-.221E-5,0
ONEWEB-0405,2021-132S,2026-07-20T06:57:24.893280,13.18685982,.00023375,87.9207,328.8597,94.5865,265.5534,0,U,50485,999,22635,.40766629E-3,.174E-5,0
ONEWEB-0406,2021-132T,2026-07-20T01:17:28.574880,13.18686805,.00016128,87.9200,328.9212,83.5667,276.5649,0,U,50486,999,22595,.12961351E-4,.18E-6,0
ONEWEB-0407,2021-132U,2026-07-19T21:29:13.807680,13.18684297,.00020201,87.9203,328.9460,103.4191,256.7167,0,U,50487,999,22587,.71593238E-4,.41E-6,0
ONEWEB-0409,2021-132V,2026-07-19T23:38:08.901600,13.11418690,.00018428,87.8895,14.5261,82.0838,278.0499,0,U,50488,999,21988,-.74405585E-3,-.251E-5,0
ONEWEB-0412,2021-132W,2026-07-19T21:12:14.800032,13.18686546,.00017272,87.9200,328.9559,107.4830,252.6491,0,U,50489,999,22596,.3507079E-4,.27E-6,0
ONEWEB-0413,2021-132X,2026-07-19T21:19:31.527840,13.18685566,.00019114,87.9192,328.9510,108.5656,251.5684,0,U,50490,999,22590,-.53355002E-3,-.197E-5,0
ONEWEB-0414,2021-132Y,2026-07-19T20:57:40.560768,13.18686313,.00017091,87.9204,328.9393,100.8593,259.2731,0,U,50491,999,22593,-.38436525E-4,-.2E-7,0
ONEWEB-0417,2021-132Z,2026-07-19T19:20:33.118368,13.18686062,.00018126,87.9194,328.9696,92.5514,267.5826,0,U,50492,999,22590,-.53742515E-3,-.199E-5,0
ONEWEB-0418,2021-132AA,2026-07-20T01:02:42.745056,13.18686061,.00018201,87.9198,328.9238,90.8542,269.2799,0,U,50493,999,22599,-.10911365E-3,-.3E-6,0
ONEWEB-0419,2021-132AB,2026-07-19T21:51:41.323680,13.18666091,.00020425,87.9204,328.9508,92.6328,267.5038,0,U,50494,999,22589,-.21135166E-4,.5E-7,0
ONEWEB-0420,2021-132AC,2026-07-19T21:00:05.874336,13.18684277,.00020497,87.9194,328.9581,103.4772,256.6589,0,U,50495,999,22588,-.53180935E-4,-.8E-7,0
ONEWEB-0421,2021-132AD,2026-07-19T20:50:24.781632,13.18686153,.00015495,87.9195,328.9578,104.6600,255.4704,0,U,50496,999,22592,-.10821976E-4,.9E-7,0
ONEWEB-0424,2021-132AE,2026-07-20T06:50:07.510560,13.18687305,.00021553,87.9203,328.8748,92.3133,267.8245,0,U,50497,999,22600,.18214044E-3,.85E-6,0
ONEWEB-0426,2021-132AF,2026-07-19T20:44:19.149792,13.18680395,.00012018,87.9203,328.9496,87.3945,272.7325,0,U,50498,999,22589,-.43676062E-2,-.1709E-4,0
ONEWEB-0427,2021-132AG,2026-07-20T01:19:54.816384,13.18686815,.00018021,87.9203,328.9008,93.3943,266.7395,0,U,50499,999,22594,.3662727E-5,.14E-6,0
ONEWEB-0429,2021-132AH,2026-07-19T21:21:56.825856,13.18685057,.00019682,87.9196,328.9552,103.4451,256.6900,0,U,50500,999,22589,-.33661647E-3,-.12E-5,0
ONEWEB-0430,2021-132AJ,2026-07-19T19:15:41.021568,13.18685026,.00021627,87.9195,328.9715,103.2444,256.8930,0,U,50501,999,22592,-.86345884E-3,-.327E-5,0
ONEWEB-0432,2021-132AK,2026-07-20T07:36:04.075776,13.18686452,.00023417,87.9201,328.8561,95.8813,264.2586,0,U,50502,999,22594,.21723471E-3,.99E-6,0
ONEWEB-0440,2021-132AL,2026-07-20T06:40:24.320928,13.18685876,.00017958,87.9204,328.8753,109.4081,250.7246,0,U,50503,999,22593,-.16782273E-3,-.53E-6,0
ONEWEB-0450,2021-132AM,2026-07-19T21:24:34.949952,13.18686705,.00020504,87.9196,328.9536,104.5586,255.5774,0,U,50504,999,22591,-.34314676E-4,-.1E-7,0
TIANHUI 4A,2021-134A,2026-07-20T06:54:42.927840,15.46901859,.00054862,88.9740,318.0114,311.4841,48.5947,0,U,50572,999,25498,.78866525E-4,.4001E-4,0
TIANHUI 4B,2021-134B,2026-07-20T06:55:15.015936,15.46902831,.00053278,88.9737,317.9908,319.8055,40.2810,0,U,50573,999,25495,.82964654E-4,.4207E-4,0
TJS-9,2021-135A,2026-07-20T06:56:15.010368,1.00270701,.00022186,0.0582,100.5311,332.4355,106.4057,0,U,50574,999,1676,0,-.301E-5,0
STARLINK-3323,2022-001B,2026-07-20T08:00:01.999872,15.15169010,.00004163,53.1593,283.2506,257.6892,336.9256,0,U,50804,999,576,.11243799E-2,.211E-3,0
STARLINK-3333,2022-001C,2026-07-20T05:33:32.450976,15.08840140,.00009152,53.1598,283.8276,93.4285,266.6811,0,U,50805,999,25055,.84650562E-4,.106E-4,0
STARLINK-3335,2022-001D,2026-07-20T00:42:05.273280,15.08835341,.00009302,53.1600,284.7377,91.4340,268.6758,0,U,50806,999,25052,.30953097E-4,.205E-5,0
