ONEWEB-0401             
1 50481U 21132N   26201.28818440 -.00000006  00000+0 -48434-4 0  9997
2 50481  87.9204 328.8614 0001785 105.7755 254.3575 13.18686561225974
ONEWEB-0402             
1 50482U 21132P   26200.87169666 -.00000095  00000+0 -27490-3 0  9997
2 50482  87.9204 328.9330 0001679 112.6675 247.4635 13.18684809225941
ONEWEB-0403             
1 50483U 21132Q   26201.04875089 -.00000006  00000+0 -48164-4 0  9995
2 50483  87.9202 328.9224 0001794  95.3994 264.7343 13.18686870225927
ONEWEB-0404             
1 50484U 21132R   26200.98651914 -.00000221  00000+0 -65854-3 0  9990
2 50484  87.8892  14.5362 0001742  81.2580 278.8745 13.11418349219990
ONEWEB-0405             
1 50485U 21132S   26201.28987145  .00000174  00000+0  40767-3 0  9994
2 50485  87.9207 328.8597 0002337  94.5865 265.5534 13.18685982226350
ONEWEB-0406             
1 50486U 21132T   26201.05380295  .00000018  00000+0  12961-4 0  9996
2 50486  87.9200 328.9212 0001612  83.5667 276.5649 13.18686805225951
ONEWEB-0407             
1 50487U 21132U   26200.89529870  .00000041  00000+0  71593-4 0  9994
2 50487  87.9203 328.9460 0002020 103.4191 256.7167 13.18684297225877
ONEWEB-0409             
1 50488U 21132V   26200.98482525 -.00000251  00000+0 -74406-3 0  9990
2 50488  87.8895  14.5261 0001842  82.0838 278.0499 13.11418690219886
ONEWEB-0412             
1 50489U 21132W   26200.88350463  .00000027  00000+0  35071-4 0  9990
2 50489  87.9200 328.9559 0001727 107.4830 252.6491 13.18686546225966
ONEWEB-0413             
1 50490U 21132X   26200.88855935 -.00000197  00000+0 -53355-3 0  9990
2 50490  87.9192 328.9510 0001911 108.5656 251.5684 13.18685566225905
ONEWEB-0414             
1 50491U 21132Y   26200.87338612 -.00000002  00000+0 -38437-4 0  9998
2 50491  87.9204 328.9393 0001709 100.8593 259.2731 13.18686313225931
ONEWEB-0417             
1 50492U 21132Z   26200.80593887 -.00000199  00000+0 -53743-3 0  9992
2 50492  87.9194 328.9696 0001812  92.5514 267.5826 13.18686062225906
ONEWEB-0418             
1 50493U 21132AA  26201.04355029 -.00000030  00000+0 -10911-3 0  9998
2 50493  87.9198 328.9238 0001820  90.8542 269.2799 13.18686061225990
ONEWEB-0419             
1 50494U 21132AB  26200.91089495  .00000005  00000+0 -21135-4 0  9997
2 50494  87.9204 328.9508 0002042  92.6328 267.5038 13.18666091225895
ONEWEB-0420             
1 50495U 21132AC  26200.87506799 -.00000008  00000+0 -53181-4 0  9994
2 50495  87.9194 328.9581 0002049 103.4772 256.6589 13.18684277225881
ONEWEB-0421             
1 50496U 21132AD  26200.86834238  .00000009  00000+0 -10822-4 0  9991
2 50496  87.9195 328.9578 0001549 104.6600 255.4704 13.18686153225922
ONEWEB-0424             
1 50497U 21132AE  26201.28480915  .00000085  00000+0  18214-3 0  9993
2 50497  87.9203 328.8748 0002155  92.3133 267.8245 13.18687305226006
ONEWEB-0426             
1 50498U 21132AF  26200.86411053 -.00001709  00000+0 -43676-2 0  9999
2 50498  87.9203 328.9496 0001201  87.3945 272.7325 13.18680395225896
ONEWEB-0427             
1 50499U 21132AG  26201.05549556  .00000014  00000+0  36627-5 0  9999
2 50499  87.9203 328.9008 0001802  93.3943 266.7395 13.18686815225947
ONEWEB-0429             
1 50500U 21132AH  26200.89024104 -.00000120  00000+0 -33662-3 0  9994
2 50500  87.9196 328.9552 0001968 103.4451 256.6900 13.18685057225896
ONEWEB-0430             
1 50501U 21132AJ  26200.80255812 -.00000327  00000+0 -86346-3 0  9994
2 50501  87.9195 328.9715 0002162 103.2444 256.8930 13.18685026225929
ONEWEB-0432             
1 50502U 21132AK  26201.31671384  .00000099  00000+0  21723-3 0  9990
2 50502  87.9201 328.8561 0002341  95.8813 264.2586 13.18686452225947
ONEWEB-0440             
1 50503U 21132AL  26201.27805927 -.00000053  00000+0 -16782-3 0  9999
2 50503  87.9204 328.8753 0001795 109.4081 250.7246 13.18685876225936
ONEWEB-0450             
1 50504U 21132AM  26200.89207118 -.00000001  00000+0 -34315-4 0  9991
2 50504  87.9196 328.9536 0002050 104.5586 255.5774 13.18686705225917
TIANHUI 4A              
1 50572U 21134A   26201.28799685  .00004001  00000+0  78867-4 0  9999
2 50572  88.9740 318.0114 0005486 311.4841  48.5947 15.46901859254983
TIANHUI 4B              
1 50573U 21134B   26201.28836824  .00004207  00000+0  82965-4 0  9999
2 50573  88.9737 317.9908 0005327 319.8055  40.2810 15.46902831254958
TJS-9                   
1 50574U 21135A   26201.28906262 -.00000301  00000+0  00000+0 0  9992
2 50574   0.0582 100.5311 0002218 332.4355 106.4057  1.00270701 16768
STARLINK-3323           
1 50804U 22001B   26201.33335648  .00021100  00000+0  11244-2 0  9995
2 50804  53.1593 283.2506 0000416 257.6892 336.9256 15.15169010  5762
STARLINK-3333           
1 50805U 22001C   26201.23162559  .00001060  00000+0  84651-4 0  9991
2 50805  53.1598 283.8276 0000915  93.4285 266.6811 15.08840140250551
STARLINK-3335           
1 50806U 22001D   26201.02922770  .00000205  00000+0  30953-4 0  9994
2 50806  53.1600 284.7377 0000930  91.4340 268.6758 15.08835341250521
